ONEWEB-0531             
1 54146U 22138AK  25303.08337927 -.00000008  00000+0 -51917-4 0  9994
2 54146  87.9197 320.3264 0002275  71.1285 289.0095 13.20771645148937
ONEWEB-0535             
1 54147U 22138AL  25303.20278768  .00000075  00000+0  15509-3 0  9994
2 54147  87.9247 350.7015 0001765  90.1152 270.0183 13.19725983146503
ONEWEB-0536             
1 54148U 22138AM  25303.29801935  .00000170  00000+0  38603-3 0  9998
2 54148  87.9190 320.3302 0002528  71.4654 288.6754 13.20771116148951
ONEWEB-0527             
1 54642U 22166A   25303.20503594  .00000069  00000+0  13541-3 0  9990
2 54642  87.9171 289.8826 0001973  88.4083 271.7277 13.21827581141153
ONEWEB-0528             
1 54643U 22166B   25303.66580140  .00000060  00000+0  11436-3 0  9995
2 54643  87.9170 289.7943 0001975  89.6372 270.4988 13.21823808141229
ONEWEB-0539             
1 54644U 22166C   25303.24948670  .00000102  00000+0  21637-3 0  9997
2 54644  87.9169 289.8435 0001260  74.1307 285.9966 13.21828128141169
ONEWEB-0540             
1 54645U 22166D   25303.25620374  .00000160  00000+0  35637-3 0  9996
2 54645  87.9168 289.8807 0001702  91.3593 268.7736 13.21826443141152
ONEWEB-0542             
1 54646U 22166E   25303.25935648  .00000291  00000+0  67333-3 0  9993
2 54646  87.9167 289.8393 0001569  88.4912 271.6402 13.21826967141160
